KUIPER-00186            
1 67140U 25301H   26012.62394634  .00028504  00000+0  80973-3 0  9995
2 67140  51.8698 336.2331 0007937 187.6851 172.4014 15.35930114  5118
KUIPER-00187            
1 67141U 25301J   26012.83337963  .00062154  00000+0  19261-2 0  9991
2 67141  51.8740 335.1297 0005830 176.2013 302.2049 15.32830055  4930
KUIPER-00188            
1 67142U 25301K   26012.62591694  .00027376  00000+0  78318-3 0  9998
2 67142  51.8711 336.2475 0007435 193.5287 166.5501 15.35735274  5112
KUIPER-00191            
1 67143U 25301L   26012.62249692  .00027370  00000+0  77808-3 0  9994
2 67143  51.8698 336.2217 0006782 185.0933 174.9985 15.35936713  5142
KUIPER-00196            
1 67144U 25301M   26012.60795576  .00027558  00000+0  76659-3 0  9991
2 67144  51.8741 336.1345 0003867 141.1011 219.0254 15.36624717  5110
KUIPER-00204            
1 67145U 25301N   26012.83337963 -.01021306  00000+0 -44771-1 0  9995
2 67145  51.8818 335.3341 0004649 123.8722 233.9843 15.24320501  5253
KUIPER-00210            
1 67146U 25301P   26011.92387263  .00014080  00000+0  42010-3 0  9997
2 67146  51.8611 339.7720 0011228 194.3333 165.7336 15.34845751  5176
KUIPER-00221            
1 67147U 25301Q   26012.83337963  .00010056  00000+0  30724-3 0  9999
2 67147  51.8735 335.1222 0004922 166.2414 325.3085 15.34484730  4633
