<?xml version="1.0" encoding="UTF-8"?>
<ndm xmlns:xsi="http://www.w3.org/2001/XMLSchema-instance" xsi:noNamespaceSchemaLocation="https://sanaregistry.org/r/ndmxml_unqualified/ndmxml-2.0.0-master-2.0.xsd">
<omm id="CCSDS_OMM_VERS" version="2.0">
<header><CREATION_DATE/><ORIGINATOR/></header><body><segment><metadata><OBJECT_NAME>KUIPER-00186</OBJECT_NAME><OBJECT_ID>2025-301H</OBJECT_ID><CENTER_NAME>EARTH</CENTER_NAME><REF_FRAME>TEME</REF_FRAME><TIME_SYSTEM>UTC</TIME_SYSTEM><MEAN_ELEMENT_THEORY>SGP4</MEAN_ELEMENT_THEORY></metadata><data><meanElements><EPOCH>2026-01-12T14:58:28.963776</EPOCH><MEAN_MOTION>15.35930114</MEAN_MOTION><ECCENTRICITY>.0007937</ECCENTRICITY><INCLINATION>51.8698</INCLINATION><RA_OF_ASC_NODE>336.2331</RA_OF_ASC_NODE><ARG_OF_PERICENTER>187.6851</ARG_OF_PERICENTER><MEAN_ANOMALY>172.4014</MEAN_ANOMALY></meanElements><tleParameters><EPHEMERIS_TYPE>0</EPHEMERIS_TYPE><CLASSIFICATION_TYPE>U</CLASSIFICATION_TYPE><NORAD_CAT_ID>67140</NORAD_CAT_ID><ELEMENT_SET_NO>999</ELEMENT_SET_NO><REV_AT_EPOCH>511</REV_AT_EPOCH><BSTAR>.80973E-3</BSTAR><MEAN_MOTION_DOT>.28504E-3</MEAN_MOTION_DOT><MEAN_MOTION_DDOT>0</MEAN_MOTION_DDOT></tleParameters></data></segment></body></omm>
<omm id="CCSDS_OMM_VERS" version="2.0">
<header><CREATION_DATE/><ORIGINATOR/></header><body><segment><metadata><OBJECT_NAME>KUIPER-00187</OBJECT_NAME><OBJECT_ID>2025-301J</OBJECT_ID><CENTER_NAME>EARTH</CENTER_NAME><REF_FRAME>TEME</REF_FRAME><TIME_SYSTEM>UTC</TIME_SYSTEM><MEAN_ELEMENT_THEORY>SGP4</MEAN_ELEMENT_THEORY></metadata><data><meanElements><EPOCH>2026-01-12T20:00:04.000032</EPOCH><MEAN_MOTION>15.32830055</MEAN_MOTION><ECCENTRICITY>.000583</ECCENTRICITY><INCLINATION>51.8740</INCLINATION><RA_OF_ASC_NODE>335.1297</RA_OF_ASC_NODE><ARG_OF_PERICENTER>176.2013</ARG_OF_PERICENTER><MEAN_ANOMALY>302.2049</MEAN_ANOMALY></meanElements><tleParameters><EPHEMERIS_TYPE>0</EPHEMERIS_TYPE><CLASSIFICATION_TYPE>U</CLASSIFICATION_TYPE><NORAD_CAT_ID>67141</NORAD_CAT_ID><ELEMENT_SET_NO>999</ELEMENT_SET_NO><REV_AT_EPOCH>493</REV_AT_EPOCH><BSTAR>.19261E-2</BSTAR><MEAN_MOTION_DOT>.62154E-3</MEAN_MOTION_DOT><MEAN_MOTION_DDOT>0</MEAN_MOTION_DDOT></tleParameters></data></segment></body></omm>
<omm id="CCSDS_OMM_VERS" version="2.0">
<header><CREATION_DATE/><ORIGINATOR/></header><body><segment><metadata><OBJECT_NAME>KUIPER-00188</OBJECT_NAME><OBJECT_ID>2025-301K</OBJECT_ID><CENTER_NAME>EARTH</CENTER_NAME><REF_FRAME>TEME</REF_FRAME><TIME_SYSTEM>UTC</TIME_SYSTEM><MEAN_ELEMENT_THEORY>SGP4</MEAN_ELEMENT_THEORY></metadata><data><meanElements><EPOCH>2026-01-12T15:01:19.223616</EPOCH><MEAN_MOTION>15.35735274</MEAN_MOTION><ECCENTRICITY>.0007435</ECCENTRICITY><INCLINATION>51.8711</INCLINATION><RA_OF_ASC_NODE>336.2475</RA_OF_ASC_NODE><ARG_OF_PERICENTER>193.5287</ARG_OF_PERICENTER><MEAN_ANOMALY>166.5501</MEAN_ANOMALY></meanElements><tleParameters><EPHEMERIS_TYPE>0</EPHEMERIS_TYPE><CLASSIFICATION_TYPE>U</CLASSIFICATION_TYPE><NORAD_CAT_ID>67142</NORAD_CAT_ID><ELEMENT_SET_NO>999</ELEMENT_SET_NO><REV_AT_EPOCH>511</REV_AT_EPOCH><BSTAR>.78318E-3</BSTAR><MEAN_MOTION_DOT>.27376E-3</MEAN_MOTION_DOT><MEAN_MOTION_DDOT>0</MEAN_MOTION_DDOT></tleParameters></data></segment></body></omm>
<omm id="CCSDS_OMM_VERS" version="2.0">
<header><CREATION_DATE/><ORIGINATOR/></header><body><segment><metadata><OBJECT_NAME>KUIPER-00191</OBJECT_NAME><OBJECT_ID>2025-301L</OBJECT_ID><CENTER_NAME>EARTH</CENTER_NAME><REF_FRAME>TEME</REF_FRAME><TIME_SYSTEM>UTC</TIME_SYSTEM><MEAN_ELEMENT_THEORY>SGP4</MEAN_ELEMENT_THEORY></metadata><data><meanElements><EPOCH>2026-01-12T14:56:23.733888</EPOCH><MEAN_MOTION>15.35936713</MEAN_MOTION><ECCENTRICITY>.0006782</ECCENTRICITY><INCLINATION>51.8698</INCLINATION><RA_OF_ASC_NODE>336.2217</RA_OF_ASC_NODE><ARG_OF_PERICENTER>185.0933</ARG_OF_PERICENTER><MEAN_ANOMALY>174.9985</MEAN_ANOMALY></meanElements><tleParameters><EPHEMERIS_TYPE>0</EPHEMERIS_TYPE><CLASSIFICATION_TYPE>U</CLASSIFICATION_TYPE><NORAD_CAT_ID>67143</NORAD_CAT_ID><ELEMENT_SET_NO>999</ELEMENT_SET_NO><REV_AT_EPOCH>514</REV_AT_EPOCH><BSTAR>.77808E-3</BSTAR><MEAN_MOTION_DOT>.2737E-3</MEAN_MOTION_DOT><MEAN_MOTION_DDOT>0</MEAN_MOTION_DDOT></tleParameters></data></segment></body></omm>
<omm id="CCSDS_OMM_VERS" version="2.0">
<header><CREATION_DATE/><ORIGINATOR/></header><body><segment><metadata><OBJECT_NAME>KUIPER-00196</OBJECT_NAME><OBJECT_ID>2025-301M</OBJECT_ID><CENTER_NAME>EARTH</CENTER_NAME><REF_FRAME>TEME</REF_FRAME><TIME_SYSTEM>UTC</TIME_SYSTEM><MEAN_ELEMENT_THEORY>SGP4</MEAN_ELEMENT_THEORY></metadata><data><meanElements><EPOCH>2026-01-12T14:35:27.377664</EPOCH><MEAN_MOTION>15.36624717</MEAN_MOTION><ECCENTRICITY>.0003867</ECCENTRICITY><INCLINATION>51.8741</INCLINATION><RA_OF_ASC_NODE>336.1345</RA_OF_ASC_NODE><ARG_OF_PERICENTER>141.1011</ARG_OF_PERICENTER><MEAN_ANOMALY>219.0254</MEAN_ANOMALY></meanElements><tleParameters><EPHEMERIS_TYPE>0</EPHEMERIS_TYPE><CLASSIFICATION_TYPE>U</CLASSIFICATION_TYPE><NORAD_CAT_ID>67144</NORAD_CAT_ID><ELEMENT_SET_NO>999</ELEMENT_SET_NO><REV_AT_EPOCH>511</REV_AT_EPOCH><BSTAR>.76659E-3</BSTAR><MEAN_MOTION_DOT>.27558E-3</MEAN_MOTION_DOT><MEAN_MOTION_DDOT>0</MEAN_MOTION_DDOT></tleParameters></data></segment></body></omm>
<omm id="CCSDS_OMM_VERS" version="2.0">
<header><CREATION_DATE/><ORIGINATOR/></header><body><segment><metadata><OBJECT_NAME>KUIPER-00204</OBJECT_NAME><OBJECT_ID>2025-301N</OBJECT_ID><CENTER_NAME>EARTH</CENTER_NAME><REF_FRAME>TEME</REF_FRAME><TIME_SYSTEM>UTC</TIME_SYSTEM><MEAN_ELEMENT_THEORY>SGP4</MEAN_ELEMENT_THEORY></metadata><data><meanElements><EPOCH>2026-01-12T20:00:04.000032</EPOCH><MEAN_MOTION>15.24320501</MEAN_MOTION><ECCENTRICITY>.0004649</ECCENTRICITY><INCLINATION>51.8818</INCLINATION><RA_OF_ASC_NODE>335.3341</RA_OF_ASC_NODE><ARG_OF_PERICENTER>123.8722</ARG_OF_PERICENTER><MEAN_ANOMALY>233.9843</MEAN_ANOMALY></meanElements><tleParameters><EPHEMERIS_TYPE>0</EPHEMERIS_TYPE><CLASSIFICATION_TYPE>U</CLASSIFICATION_TYPE><NORAD_CAT_ID>67145</NORAD_CAT_ID><ELEMENT_SET_NO>999</ELEMENT_SET_NO><REV_AT_EPOCH>525</REV_AT_EPOCH><BSTAR>-.44771E-1</BSTAR><MEAN_MOTION_DOT>-.1021306E-1</MEAN_MOTION_DOT><MEAN_MOTION_DDOT>0</MEAN_MOTION_DDOT></tleParameters></data></segment></body></omm>
<omm id="CCSDS_OMM_VERS" version="2.0">
<header><CREATION_DATE/><ORIGINATOR/></header><body><segment><metadata><OBJECT_NAME>KUIPER-00210</OBJECT_NAME><OBJECT_ID>2025-301P</OBJECT_ID><CENTER_NAME>EARTH</CENTER_NAME><REF_FRAME>TEME</REF_FRAME><TIME_SYSTEM>UTC</TIME_SYSTEM><MEAN_ELEMENT_THEORY>SGP4</MEAN_ELEMENT_THEORY></metadata><data><meanElements><EPOCH>2026-01-11T22:10:22.595232</EPOCH><MEAN_MOTION>15.34845751</MEAN_MOTION><ECCENTRICITY>.00112284</ECCENTRICITY><INCLINATION>51.8611</INCLINATION><RA_OF_ASC_NODE>339.7720</RA_OF_ASC_NODE><ARG_OF_PERICENTER>194.3333</ARG_OF_PERICENTER><MEAN_ANOMALY>165.7336</MEAN_ANOMALY></meanElements><tleParameters><EPHEMERIS_TYPE>0</EPHEMERIS_TYPE><CLASSIFICATION_TYPE>U</CLASSIFICATION_TYPE><NORAD_CAT_ID>67146</NORAD_CAT_ID><ELEMENT_SET_NO>999</ELEMENT_SET_NO><REV_AT_EPOCH>517</REV_AT_EPOCH><BSTAR>.42009787E-3</BSTAR><MEAN_MOTION_DOT>.1408E-3</MEAN_MOTION_DOT><MEAN_MOTION_DDOT>0</MEAN_MOTION_DDOT></tleParameters></data></segment></body></omm>
<omm id="CCSDS_OMM_VERS" version="2.0">
<header><CREATION_DATE/><ORIGINATOR/></header><body><segment><metadata><OBJECT_NAME>KUIPER-00221</OBJECT_NAME><OBJECT_ID>2025-301Q</OBJECT_ID><CENTER_NAME>EARTH</CENTER_NAME><REF_FRAME>TEME</REF_FRAME><TIME_SYSTEM>UTC</TIME_SYSTEM><MEAN_ELEMENT_THEORY>SGP4</MEAN_ELEMENT_THEORY></metadata><data><meanElements><EPOCH>2026-01-12T20:00:04.000032</EPOCH><MEAN_MOTION>15.34484730</MEAN_MOTION><ECCENTRICITY>.0004922</ECCENTRICITY><INCLINATION>51.8735</INCLINATION><RA_OF_ASC_NODE>335.1222</RA_OF_ASC_NODE><ARG_OF_PERICENTER>166.2414</ARG_OF_PERICENTER><MEAN_ANOMALY>325.3085</MEAN_ANOMALY></meanElements><tleParameters><EPHEMERIS_TYPE>0</EPHEMERIS_TYPE><CLASSIFICATION_TYPE>U</CLASSIFICATION_TYPE><NORAD_CAT_ID>67147</NORAD_CAT_ID><ELEMENT_SET_NO>999</ELEMENT_SET_NO><REV_AT_EPOCH>463</REV_AT_EPOCH><BSTAR>.30724E-3</BSTAR><MEAN_MOTION_DOT>.10056E-3</MEAN_MOTION_DOT><MEAN_MOTION_DDOT>0</MEAN_MOTION_DDOT></tleParameters></data></segment></body></omm>

</ndm>
